start=new Date('2022-11-01T00:00:00.000Z').valueOf();
sats=[{"RA_OF_ASC_NODE":"129.6438","EPOCH":"2022-10-31T21:02:03.749856","MEAN_MOTION_DDOT":"0.0000000000000","GP_ID":"216614295","MEAN_ELEMENT_THEORY":"SGP4","TLE_LINE1":"1 45761U 20038AH  22304.87643229 -.00019229  00000-0 -85511-4 0  9997","ELEMENT_SET_NO":"999","REF_FRAME":"TEME","BSTAR":"-0.00008551100000","PERIAPSIS":"321.126","EPHEMERIS_TYPE":"0","ECCENTRICITY":"0.00017060","NORAD_CAT_ID":"45761","DECAY_DATE":null,"RCS_SIZE":"LARGE","TLE_LINE2":"2 45761  53.0350 129.6438 0001706 326.1674  33.9238 15.82891778134470","OBJECT_NAME":"STARLINK-1495","INCLINATION":"53.0350","MEAN_MOTION_DOT":"-0.00019229","OBJECT_ID":"2020-038AH","PERIOD":"90.973","COUNTRY_CODE":"US","REV_AT_EPOCH":"13447","CLASSIFICATION_TYPE":"U","OBJECT_TYPE":"PAYLOAD","ARG_OF_PERICENTER":"326.1674","FILE":"3639522","SEMIMAJOR_AXIS":"6700.405","TIME_SYSTEM":"UTC","SITE":"AFETR","MEAN_ANOMALY":"33.9238","LAUNCH_DATE":"2020-06-13","APOAPSIS":"323.413","CENTER_NAME":"EARTH","MEAN_MOTION":"15.82891778"},{"PERIOD":"95.293","CLASSIFICATION_TYPE":"U","REV_AT_EPOCH":"13275","COUNTRY_CODE":"US","OBJECT_NAME":"STARLINK-1499","TLE_LINE2":"2 45762  53.0554 314.5676 0002808  60.0053 300.1217 15.11130155132757","OBJECT_ID":"2020-038AJ","MEAN_MOTION_DOT":"0.00019672","INCLINATION":"53.0554","LAUNCH_DATE":"2020-06-13","MEAN_MOTION":"15.11130155","CENTER_NAME":"EARTH","APOAPSIS":"534.695","OBJECT_TYPE":"PAYLOAD","ARG_OF_PERICENTER":"60.0053","SITE":"AFETR","TIME_SYSTEM":"UTC","MEAN_ANOMALY":"300.1217","SEMIMAJOR_AXIS":"6910.889","FILE":"3638502","MEAN_ELEMENT_THEORY":"SGP4","RA_OF_ASC_NODE":"314.5676","MEAN_MOTION_DDOT":"0.0000000000000","GP_ID":"216570716","EPOCH":"2022-10-31T07:30:04.752000","ECCENTRICITY":"0.00028080","RCS_SIZE":"LARGE","DECAY_DATE":null,"NORAD_CAT_ID":"45762","ELEMENT_SET_NO":"999","TLE_LINE1":"1 45762U 20038AJ  22304.31255500  .00019672  00000-0  11745-2 0  9994","EPHEMERIS_TYPE":"0","PERIAPSIS":"530.814","BSTAR":"0.00117450000000","REF_FRAME":"TEME"},{"TLE_LINE2":"2 45764  53.0549 315.7117 0002279  45.3618 314.7557 15.06386928131854","OBJECT_NAME":"STARLINK-1502","OBJECT_ID":"2020-038AL","MEAN_MOTION_DOT":"-0.00004186","INCLINATION":"53.0549","PERIOD":"95.593","CLASSIFICATION_TYPE":"U","COUNTRY_CODE":"US","REV_AT_EPOCH":"13185","OBJECT_TYPE":"PAYLOAD","ARG_OF_PERICENTER":"45.3618","SITE":"AFETR","TIME_SYSTEM":"UTC","MEAN_ANOMALY":"314.7557","FILE":"3639522","SEMIMAJOR_AXIS":"6925.389","LAUNCH_DATE":"2020-06-13","CENTER_NAME":"EARTH","MEAN_MOTION":"15.06386928","APOAPSIS":"548.832","RA_OF_ASC_NODE":"315.7117","MEAN_MOTION_DDOT":"0.0000000000000","GP_ID":"216612795","EPOCH":"2022-10-31T17:23:16.109664","MEAN_ELEMENT_THEORY":"SGP4","ELEMENT_SET_NO":"999","TLE_LINE1":"1 45764U 20038AL  22304.72449201 -.00004186  00000-0 -26235-3 0  9991","PERIAPSIS":"545.675","EPHEMERIS_TYPE":"0","REF_FRAME":"TEME","BSTAR":"-0.00026235000000","ECCENTRICITY":"0.00022790","NORAD_CAT_ID":"45764","DECAY_DATE":null,"RCS_SIZE":"LARGE"},{"MEAN_ELEMENT_THEORY":"SGP4","EPOCH":"2022-10-31T20:18:25.363296","GP_ID":"216613545","MEAN_MOTION_DDOT":"0.0000000000000","RA_OF_ASC_NODE":"315.1486","DECAY_DATE":null,"NORAD_CAT_ID":"45766","RCS_SIZE":"LARGE","ECCENTRICITY":"0.00020800","BSTAR":"0.00007520700000","REF_FRAME":"TEME","PERIAPSIS":"545.795","EPHEMERIS_TYPE":"0","TLE_LINE1":"1 45766U 20038AN  22304.84612689  .00000838  00000-0  75207-4 0  9990","ELEMENT_SET_NO":"999","COUNTRY_CODE":"US","REV_AT_EPOCH":"13185","CLASSIFICATION_TYPE":"U","PERIOD":"95.593","INCLINATION":"53.0546","MEAN_MOTION_DOT":"0.00000838","OBJECT_ID":"2020-038AN","TLE_LINE2":"2 45766  53.0546 315.1486 0002080  46.3278 313.7883 15.06392711131857","OBJECT_NAME":"STARLINK-1509","APOAPSIS":"548.676","CENTER_NAME":"EARTH","MEAN_MOTION":"15.06392711","LAUNCH_DATE":"2020-06-13","SEMIMAJOR_AXIS":"6925.371","FILE":"3639522","MEAN_ANOMALY":"313.7883","SITE":"AFETR","TIME_SYSTEM":"UTC","OBJECT_TYPE":"PAYLOAD","ARG_OF_PERICENTER":"46.3278"},{"ECCENTRICITY":"0.00022140","NORAD_CAT_ID":"45767","DECAY_DATE":null,"RCS_SIZE":"LARGE","ELEMENT_SET_NO":"999","TLE_LINE1":"1 45767U 20038AP  22304.37431384  .00002583  00000-0  19224-3 0  9995","EPHEMERIS_TYPE":"0","PERIAPSIS":"545.668","REF_FRAME":"TEME","BSTAR":"0.00019224000000","MEAN_ELEMENT_THEORY":"SGP4","RA_OF_ASC_NODE":"317.2787","MEAN_MOTION_DDOT":"0.0000000000000","GP_ID":"216576596","EPOCH":"2022-10-31T08:59:00.715776","LAUNCH_DATE":"2020-06-13","CENTER_NAME":"EARTH","MEAN_MOTION":"15.06403987","APOAPSIS":"548.735","ARG_OF_PERICENTER":"46.4505","OBJECT_TYPE":"PAYLOAD","SITE":"AFETR","MEAN_ANOMALY":"313.6668","TIME_SYSTEM":"UTC","SEMIMAJOR_AXIS":"6925.336","FILE":"3638752","PERIOD":"95.592","CLASSIFICATION_TYPE":"U","COUNTRY_CODE":"US","REV_AT_EPOCH":"13271","TLE_LINE2":"2 45767  53.0539 317.2787 0002214  46.4505 313.6668 15.06403987132714","OBJECT_NAME":"STARLINK-1511","OBJECT_ID":"2020-038AP","MEAN_MOTION_DOT":"0.00002583","INCLINATION":"53.0539"},{"ARG_OF_PERICENTER":"43.1198","OBJECT_TYPE":"PAYLOAD","FILE":"3639522","SEMIMAJOR_AXIS":"6925.391","SITE":"AFETR","MEAN_ANOMALY":"316.9942","TIME_SYSTEM":"UTC","LAUNCH_DATE":"2020-06-13","APOAPSIS":"548.593","CENTER_NAME":"EARTH","MEAN_MOTION":"15.06386298","TLE_LINE2":"2 45768  53.0540 315.5572 0001931  43.1198 316.9942 15.06386298131857","OBJECT_NAME":"STARLINK-1521","INCLINATION":"53.0540","MEAN_MOTION_DOT":"-0.00000242","OBJECT_ID":"2020-038AQ","PERIOD":"95.593","COUNTRY_CODE":"US","REV_AT_EPOCH":"13185","CLASSIFICATION_TYPE":"U","TLE_LINE1":"1 45768U 20038AQ  22304.75398442 -.00000242  00000-0  26685-5 0  9997","ELEMENT_SET_NO":"999","REF_FRAME":"TEME","BSTAR":"0.00000266850000","EPHEMERIS_TYPE":"0","PERIAPSIS":"545.918","ECCENTRICITY":"0.00019310","DECAY_DATE":null,"NORAD_CAT_ID":"45768","RCS_SIZE":"LARGE","RA_OF_ASC_NODE":"315.5572","EPOCH":"2022-10-31T18:05:44.253888","MEAN_MOTION_DDOT":"0.0000000000000","GP_ID":"216614545","MEAN_ELEMENT_THEORY":"SGP4"},{"MEAN_ELEMENT_THEORY":"SGP4","MEAN_MOTION_DDOT":"0.0000000000000","GP_ID":"216613295","EPOCH":"2022-10-31T12:18:04.037472","RA_OF_ASC_NODE":"336.6600","RCS_SIZE":"LARGE","NORAD_CAT_ID":"45769","DECAY_DATE":null,"ECCENTRICITY":"0.00018580","PERIAPSIS":"545.967","EPHEMERIS_TYPE":"0","REF_FRAME":"TEME","BSTAR":"0.00002479200000","ELEMENT_SET_NO":"999","TLE_LINE1":"1 45769U 20038AR  22304.51254673  .00000088  00000-0  24792-4 0  9992","CLASSIFICATION_TYPE":"U","REV_AT_EPOCH":"13153","COUNTRY_CODE":"US","PERIOD":"95.593","OBJECT_ID":"2020-038AR","INCLINATION":"53.0547","MEAN_MOTION_DOT":"0.00000088","OBJECT_NAME":"STARLINK-1459","TLE_LINE2":"2 45769  53.0547 336.6600 0001858  41.5961 318.5169 15.06387009131534","MEAN_MOTION":"15.06387009","CENTER_NAME":"EARTH","APOAPSIS":"548.540","LAUNCH_DATE":"2020-06-13","SITE":"AFETR","MEAN_ANOMALY":"318.5169","TIME_SYSTEM":"UTC","FILE":"3639522","SEMIMAJOR_AXIS":"6925.388","ARG_OF_PERICENTER":"41.5961","OBJECT_TYPE":"PAYLOAD"},{"MEAN_ELEMENT_THEORY":"SGP4","GP_ID":"216613046","MEAN_MOTION_DDOT":"0.0000000000000","EPOCH":"2022-10-31T17:08:38.029056","RA_OF_ASC_NODE":"295.7567","DECAY_DATE":null,"NORAD_CAT_ID":"45770","RCS_SIZE":"LARGE","ECCENTRICITY":"0.00022630","PERIAPSIS":"545.671","EPHEMERIS_TYPE":"0","REF_FRAME":"TEME","BSTAR":"-0.00005352000000","ELEMENT_SET_NO":"999","TLE_LINE1":"1 45770U 20038AS  22304.71432904 -.00001079  00000-0 -53520-4 0  9995","CLASSIFICATION_TYPE":"U","COUNTRY_CODE":"US","REV_AT_EPOCH":"13211","PERIOD":"95.593","OBJECT_ID":"2020-038AS","MEAN_MOTION_DOT":"-0.00001079","INCLINATION":"53.0535","TLE_LINE2":"2 45770  53.0535 295.7567 0002263  56.1850 303.9354 15.06391929132115","OBJECT_NAME":"STARLINK-1462","CENTER_NAME":"EARTH","MEAN_MOTION":"15.06391929","APOAPSIS":"548.806","LAUNCH_DATE":"2020-06-13","SITE":"AFETR","MEAN_ANOMALY":"303.9354","TIME_SYSTEM":"UTC","SEMIMAJOR_AXIS":"6925.373","FILE":"3639522","ARG_OF_PERICENTER":"56.1850","OBJECT_TYPE":"PAYLOAD"},{"DECAY_DATE":null,"NORAD_CAT_ID":"45771","RCS_SIZE":"LARGE","ECCENTRICITY":"0.00017100","BSTAR":"0.00005944200000","REF_FRAME":"TEME","PERIAPSIS":"546.031","EPHEMERIS_TYPE":"0","TLE_LINE1":"1 45771U 20038AT  22304.77423995  .00000604  00000-0  59442-4 0  9992","ELEMENT_SET_NO":"999","MEAN_ELEMENT_THEORY":"SGP4","EPOCH":"2022-10-31T18:34:54.331680","MEAN_MOTION_DDOT":"0.0000000000000","GP_ID":"216614296","RA_OF_ASC_NODE":"295.4862","APOAPSIS":"548.399","CENTER_NAME":"EARTH","MEAN_MOTION":"15.06399546","LAUNCH_DATE":"2020-06-13","SEMIMAJOR_AXIS":"6925.350","FILE":"3639522","TIME_SYSTEM":"UTC","SITE":"AFETR","MEAN_ANOMALY":"307.5180","OBJECT_TYPE":"PAYLOAD","ARG_OF_PERICENTER":"52.5965","COUNTRY_CODE":"US","REV_AT_EPOCH":"13212","CLASSIFICATION_TYPE":"U","PERIOD":"95.592","INCLINATION":"53.0541","MEAN_MOTION_DOT":"0.00000604","OBJECT_ID":"2020-038AT","TLE_LINE2":"2 45771  53.0541 295.4862 0001710  52.5965 307.5180 15.06399546132122","OBJECT_NAME":"STARLINK-1463"},{"NORAD_CAT_ID":"45772","DECAY_DATE":null,"RCS_SIZE":"LARGE","ECCENTRICITY":"0.00018440","REF_FRAME":"TEME","BSTAR":"-0.00003521700000","PERIAPSIS":"545.967","EPHEMERIS_TYPE":"0","TLE_LINE1":"1 45772U 20038AU  22304.69685225 -.00000806  00000-0 -35217-4 0  9990","ELEMENT_SET_NO":"999","MEAN_ELEMENT_THEORY":"SGP4","EPOCH":"2022-10-31T16:43:28.034400","MEAN_MOTION_DDOT":"0.0000000000000","GP_ID":"216614047","RA_OF_ASC_NODE":"295.8307","APOAPSIS":"548.522","CENTER_NAME":"EARTH","MEAN_MOTION":"15.06389898","LAUNCH_DATE":"2020-06-13","FILE":"3639522","SEMIMAJOR_AXIS":"6925.380","MEAN_ANOMALY":"310.7616","SITE":"AFETR","TIME_SYSTEM":"UTC","ARG_OF_PERICENTER":"49.3533","OBJECT_TYPE":"PAYLOAD","COUNTRY_CODE":"US","REV_AT_EPOCH":"13212","CLASSIFICATION_TYPE":"U","PERIOD":"95.593","MEAN_MOTION_DOT":"-0.00000806","INCLINATION":"53.0558","OBJECT_ID":"2020-038AU","TLE_LINE2":"2 45772  53.0558 295.8307 0001844  49.3533 310.7616 15.06389898132121","OBJECT_NAME":"STARLINK-1470"}];
